{"type": "FeatureCollection", "features": [ {"type": "Feature", "properties": {"norad_id": 33799, "name": "COSMOS 2251 DEB", "group": "cosmos-2251-debris", "lat": 73.88443942086568, "lon": 135.61955109488295, "alt_km": 609.0375759591088, "timestamp": "2025-12-27T04:40:45.897549+00:00", "meta": {"OBJECT_NAME": "COSMOS 2251 DEB", "OBJECT_ID": "1993-036AQ", "EPOCH": "2025-12-26T20:41:55.171104", "MEAN_MOTION": 14.79845741, "ECCENTRICITY": 0.00221175, "INCLINATION": 74.0325, "RA_OF_ASC_NODE": 53.9742, "ARG_OF_PERICENTER": 119.3552, "MEAN_ANOMALY": 357.8405, "EPHEMERIS_TYPE": 0, "CLASSIFICATION_TYPE": "U", "NORAD_CAT_ID": 33799, "ELEMENT_SET_NO": 999, "REV_AT_EPOCH": 89020, "BSTAR": 0.0013896804, "MEAN_MOTION_DOT": 0.00010501, "MEAN_MOTION_DDOT": 0}, "tle": {"line1": "1 33799U 93036AQ  25360.86244411  .00010501  00000+0  13897-2 0  9994", "line2": "2 33799  74.0325  53.9742 0022117 119.3552 357.8405 14.79845741890204"}}, "geometry": {"type": "Point", "coordinates": [135.61955109488295, 73.88443942086568]}}, {"type": "Feature", "properties": {"norad_id": 33805, "name": "COSMOS 2251 DEB", "group": "cosmos-2251-debris", "lat": 11.783205694681335, "lon": 100.40771253769836, "alt_km": 678.9858589926116, "timestamp": "2025-12-27T04:40:45.897559+00:00", "meta": {"OBJECT_NAME": "COSMOS 2251 DEB", "OBJECT_ID": "1993-036AW", "EPOCH": "2025-12-26T21:19:52.322592", "MEAN_MOTION": 14.57887675, "ECCENTRICITY": 0.00598727, "INCLINATION": 74.0313, "RA_OF_ASC_NODE": 284.4144, "ARG_OF_PERICENTER": 109.2494, "MEAN_ANOMALY": 251.5161, "EPHEMERIS_TYPE": 0, "CLASSIFICATION_TYPE": "U", "NORAD_CAT_ID": 33805, "ELEMENT_SET_NO": 999, "REV_AT_EPOCH": 89433, "BSTAR": 0.0002816052, "MEAN_MOTION_DOT": 1.293e-05, "MEAN_MOTION_DDOT": 0}, "tle": {"line1": "1 33805U 93036AW  25360.88880003  .00001293  00000+0  28161-3 0  9996", "line2": "2 33805  74.0313 284.4144 0059872 109.2494 251.5161 14.57887675894332"}}, "geometry": {"type": "Point", "coordinates": [100.40771253769836, 11.783205694681335]}}, {"type": "Feature", "properties": {"norad_id": 33811, "name": "COSMOS 2251 DEB", "group": "cosmos-2251-debris", "lat": -9.092685248065049, "lon": -89.9922183254657, "alt_km": 531.645392561858, "timestamp": "2025-12-27T04:40:45.897569+00:00", "meta": {"OBJECT_NAME": "COSMOS 2251 DEB", "OBJECT_ID": "1993-036BC", "EPOCH": "2025-12-26T21:02:15.140832", "MEAN_MOTION": 15.05694858, "ECCENTRICITY": 0.00310066, "INCLINATION": 73.8376, "RA_OF_ASC_NODE": 273.3286, "ARG_OF_PERICENTER": 351.6254, "MEAN_ANOMALY": 73.797, "EPHEMERIS_TYPE": 0, "CLASSIFICATION_TYPE": "U", "NORAD_CAT_ID": 33811, "ELEMENT_SET_NO": 999, "REV_AT_EPOCH": 90231, "BSTAR": 0.0011403544, "MEAN_MOTION_DOT": 0.00016663, "MEAN_MOTION_DDOT": 0}, "tle": {"line1": "1 33811U 93036BC  25360.87656413  .00016663  00000+0  11404-2 0  9996", "line2": "2 33811  73.8376 273.3286 0031006 351.6254  73.7970 15.05694858902318"}}, "geometry": {"type": "Point", "coordinates": [-89.9922183254657, -9.092685248065049]}}, {"type": "Feature", "properties": {"norad_id": 33815, "name": "COSMOS 2251 DEB", "group": "cosmos-2251-debris", "lat": 73.65161291398215, "lon": -112.7946017421319, "alt_km": 492.96648541235754, "timestamp": "2025-12-27T04:40:45.897580+00:00", "meta": {"OBJECT_NAME": "COSMOS 2251 DEB", "OBJECT_ID": "1993-036BG", "EPOCH": "2025-12-26T19:21:29.173824", "MEAN_MOTION": 15.2217288, "ECCENTRICITY": 0.00046586, "INCLINATION": 73.9509, "RA_OF_ASC_NODE": 146.9508, "ARG_OF_PERICENTER": 335.5808, "MEAN_ANOMALY": 149.9853, "EPHEMERIS_TYPE": 0, "CLASSIFICATION_TYPE": "U", "NORAD_CAT_ID": 33815, "ELEMENT_SET_NO": 999, "REV_AT_EPOCH": 88584, "BSTAR": 0.008217708, "MEAN_MOTION_DOT": 0.00193763, "MEAN_MOTION_DDOT": 0}, "tle": {"line1": "1 33815U 93036BG  25360.80658766  .00193763  00000+0  82177-2 0  9998", "line2": "2 33815  73.9509 146.9508 0004658 335.5808 149.9853 15.22172880885841"}}, "geometry": {"type": "Point", "coordinates": [-112.7946017421319, 73.65161291398215]}}, {"type": "Feature", "properties": {"norad_id": 33816, "name": "COSMOS 2251 DEB", "group": "cosmos-2251-debris", "lat": -31.563449537007788, "lon": 70.67374795205228, "alt_km": 1067.5862958674925, "timestamp": "2025-12-27T04:40:45.897590+00:00", "meta": {"OBJECT_NAME": "COSMOS 2251 DEB", "OBJECT_ID": "1993-036BH", "EPOCH": "2025-12-26T13:12:12.420864", "MEAN_MOTION": 13.8179828, "ECCENTRICITY": 0.0264088, "INCLINATION": 73.8953, "RA_OF_ASC_NODE": 81.9893, "ARG_OF_PERICENTER": 92.1797, "MEAN_ANOMALY": 270.9588, "EPHEMERIS_TYPE": 0, "CLASSIFICATION_TYPE": "U", "NORAD_CAT_ID": 33816, "ELEMENT_SET_NO": 999, "REV_AT_EPOCH": 84864, "BSTAR": 0.00036141, "MEAN_MOTION_DOT": 4.83e-06, "MEAN_MOTION_DDOT": 0}, "tle": {"line1": "1 33816U 93036BH  25360.55014376  .00000483  00000+0  36141-3 0  9991", "line2": "2 33816  73.8953  81.9893 0264088  92.1797 270.9588 13.81798280848645"}}, "geometry": {"type": "Point", "coordinates": [70.67374795205228, -31.563449537007788]}}, {"type": "Feature", "properties": {"norad_id": 33818, "name": "COSMOS 2251 DEB", "group": "cosmos-2251-debris", "lat": -18.289316026639764, "lon": 130.9271571650206, "alt_km": 541.3744073587213, "timestamp": "2025-12-27T04:40:45.897600+00:00", "meta": {"OBJECT_NAME": "COSMOS 2251 DEB", "OBJECT_ID": "1993-036BK", "EPOCH": "2025-12-26T19:45:00.139392", "MEAN_MOTION": 15.13704026, "ECCENTRICITY": 0.00236337, "INCLINATION": 74.0797, "RA_OF_ASC_NODE": 137.1105, "ARG_OF_PERICENTER": 118.5172, "MEAN_ANOMALY": 356.1267, "EPHEMERIS_TYPE": 0, "CLASSIFICATION_TYPE": "U", "NORAD_CAT_ID": 33818, "ELEMENT_SET_NO": 999, "REV_AT_EPOCH": 90075, "BSTAR": 0.0026801375, "MEAN_MOTION_DOT": 0.00048886, "MEAN_MOTION_DDOT": 0}, "tle": {"line1": "1 33818U 93036BK  25360.82291828  .00048886  00000+0  26801-2 0  9992", "line2": "2 33818  74.0797 137.1105 0023633 118.5172 356.1267 15.13704026900759"}}, "geometry": {"type": "Point", "coordinates": [130.9271571650206, -18.289316026639764]}}, {"type": "Feature", "properties": {"norad_id": 33819, "name": "COSMOS 2251 DEB", "group": "cosmos-2251-debris", "lat": -40.97645350004182, "lon": 17.95739422929048, "alt_km": 854.4907161520214, "timestamp": "2025-12-27T04:40:45.897625+00:00", "meta": {"OBJECT_NAME": "COSMOS 2251 DEB", "OBJECT_ID": "1993-036BL", "EPOCH": "2025-12-26T23:19:03.057888", "MEAN_MOTION": 14.32268166, "ECCENTRICITY": 0.00895943, "INCLINATION": 74.1772, "RA_OF_ASC_NODE": 184.1021, "ARG_OF_PERICENTER": 41.1312, "MEAN_ANOMALY": 110.3028, "EPHEMERIS_TYPE": 0, "CLASSIFICATION_TYPE": "U", "NORAD_CAT_ID": 33819, "ELEMENT_SET_NO": 999, "REV_AT_EPOCH": 87699, "BSTAR": 0.00059042377, "MEAN_MOTION_DOT": 1.641e-05, "MEAN_MOTION_DDOT": 0}, "tle": {"line1": "1 33819U 93036BL  25360.97156317  .00001641  00000+0  59042-3 0  9994", "line2": "2 33819  74.1772 184.1021 0089594  41.1312 110.3028 14.32268166876991"}}, "geometry": {"type": "Point", "coordinates": [17.95739422929048, -40.97645350004182]}}, {"type": "Feature", "properties": {"norad_id": 33821, "name": "COSMOS 2251 DEB", "group": "cosmos-2251-debris", "lat": 72.02849790527416, "lon": 174.24686221859727, "alt_km": 462.41899463472964, "timestamp": "2025-12-27T04:40:45.897638+00:00", "meta": {"OBJECT_NAME": "COSMOS 2251 DEB", "OBJECT_ID": "1993-036BN", "EPOCH": "2025-12-26T17:18:35.884224", "MEAN_MOTION": 15.26197186, "ECCENTRICITY": 0.0048956, "INCLINATION": 74.0304, "RA_OF_ASC_NODE": 113.2604, "ARG_OF_PERICENTER": 141.9043, "MEAN_ANOMALY": 218.5636, "EPHEMERIS_TYPE": 0, "CLASSIFICATION_TYPE": "U", "NORAD_CAT_ID": 33821, "ELEMENT_SET_NO": 999, "REV_AT_EPOCH": 75214, "BSTAR": 0.0013016999, "MEAN_MOTION_DOT": 0.00034989, "MEAN_MOTION_DDOT": 0}, "tle": {"line1": "1 33821U 93036BN  25360.72124866  .00034989  00000+0  13017-2 0  9996", "line2": "2 33821  74.0304 113.2604 0048956 141.9043 218.5636 15.26197186752144"}}, "geometry": {"type": "Point", "coordinates": [174.24686221859727, 72.02849790527416]}}, {"type": "Feature", "properties": {"norad_id": 33822, "name": "COSMOS 2251 DEB", "group": "cosmos-2251-debris", "lat": 44.60040174757263, "lon": -28.197838880522227, "alt_km": 819.8720137059581, "timestamp": "2025-12-27T04:40:45.897649+00:00", "meta": {"OBJECT_NAME": "COSMOS 2251 DEB", "OBJECT_ID": "1993-036BP", "EPOCH": "2025-12-26T21:58:01.564032", "MEAN_MOTION": 14.13151684, "ECCENTRICITY": 0.01525498, "INCLINATION": 74.0689, "RA_OF_ASC_NODE": 168.6556, "ARG_OF_PERICENTER": 211.5659, "MEAN_ANOMALY": 300.8936, "EPHEMERIS_TYPE": 0, "CLASSIFICATION_TYPE": "U", "NORAD_CAT_ID": 33822, "ELEMENT_SET_NO": 999, "REV_AT_EPOCH": 86254, "BSTAR": 0.0021636935, "MEAN_MOTION_DOT": 4.497e-05, "MEAN_MOTION_DDOT": 0}, "tle": {"line1": "1 33822U 93036BP  25360.91529588  .00004497  00000+0  21637-2 0  9996", "line2": "2 33822  74.0689 168.6556 0152549 211.5659 300.8936 14.13151684862544"}}, "geometry": {"type": "Point", "coordinates": [-28.197838880522227, 44.60040174757263]}}, {"type": "Feature", "properties": {"norad_id": 33823, "name": "COSMOS 2251 DEB", "group": "cosmos-2251-debris", "lat": -52.55055966560331, "lon": 101.70614788439376, "alt_km": 819.6544223267219, "timestamp": "2025-12-27T04:40:45.897660+00:00", "meta": {"OBJECT_NAME": "COSMOS 2251 DEB", "OBJECT_ID": "1993-036BQ", "EPOCH": "2025-12-26T10:21:01.378944", "MEAN_MOTION": 13.9898683, "ECCENTRICITY": 0.0209489, "INCLINATION": 73.8101, "RA_OF_ASC_NODE": 125.3346, "ARG_OF_PERICENTER": 248.3149, "MEAN_ANOMALY": 169.1404, "EPHEMERIS_TYPE": 0, "CLASSIFICATION_TYPE": "U", "NORAD_CAT_ID": 33823, "ELEMENT_SET_NO": 999, "REV_AT_EPOCH": 85801, "BSTAR": 0.00093914, "MEAN_MOTION_DOT": 1.611e-05, "MEAN_MOTION_DDOT": 0}, "tle": {"line1": "1 33823U 93036BQ  25360.43126596  .00001611  00000+0  93914-3 0  9999", "line2": "2 33823  73.8101 125.3346 0209489 248.3149 169.1404 13.98986830858010"}}, "geometry": {"type": "Point", "coordinates": [101.70614788439376, -52.55055966560331]}}]}